SL-16 R/B               
1 22566U 93016B   26031.81569816  .00000206  00000+0  13013-3 0  9994
2 22566  71.0084 292.6311 0009744   6.6374 353.4876 14.15302586696953
COSMOS 2242             
1 22626U 93024A   26031.79296840  .00002109  00000+0  18335-3 0  9997
2 22626  82.5208 302.0026 0018041  70.9142 289.4032 14.96384850774874
SL-16 R/B               
1 22803U 93059B   26031.84517828  .00000096  00000+0  71484-4 0  9998
2 22803  70.9895  88.8282 0019517 266.7261  93.1629 14.17223440674313
ARIANE 40 R/B           
1 22830U 93061H   26031.75800549  .00000268  00000+0  11411-3 0  9990
2 22830  98.4995 101.3600 0011259  38.8723 321.3269 14.32840168688815
COSMOS 2278             
1 23087U 94023A   26031.82116421 -.00000195  00000+0 -77353-4 0  9990
2 23087  71.0515 252.2337 0006307  82.9983 277.1857 14.14365904639596
SL-16 R/B               
1 23088U 94023B   26031.67228674 -.00000241  00000+0 -99665-4 0  9990
2 23088  71.0001 148.6277 0004396 319.6183  40.4613 14.15004833640850
SL-16 R/B               
1 23343U 94074B   26031.67031324  .00000586  00000+0  85308-4 0  9993
2 23343  97.7154  63.9797 0006300 355.0682 117.2940 14.79361203681778
SL-16 R/B               
1 23405U 94077B   26031.80968619 -.00000212  00000+0 -83684-4 0  9999
2 23405  70.9818  70.0791 0004643 245.3866 114.6774 14.15557246611013
ARIANE 40+ R/B          
1 23561U 95021B   26031.78460234  .00000366  00000+0  13086-3 0  9995
2 23561  98.4572 103.7531 0005741 248.3490 220.9915 14.39743562613935
SL-16 R/B               
1 23705U 95058B   26031.81486460  .00000086  00000+0  68365-4 0  9998
2 23705  71.0190 257.6737 0012777 185.7402 174.3577 14.15488158562636
SL-16 R/B               
1 24298U 96051B   26031.84306899  .00000070  00000+0  64543-4 0  9997
2 24298  70.7567 253.2314 0018104 198.9750 161.0698 14.12405007516447
ORBVIEW 2 (SEASTAR)     
1 24883U 97037A   26031.40570081  .00000369  00000+0  14455-3 0  9997
2 24883  98.8503 194.7433 0002617 149.3950 210.7387 14.35464166503127
